{
    "CCSDS_OMM_VERS": "3.0",
    "COMMENT": "GENERATED VIA SPACE-TRACK.ORG API",
    "CREATION_DATE": "2025-11-23T14:26:32",
    "ORIGINATOR": "18 SPCS",
    "OBJECT_NAME": "GALILEO 18 (26E)",
    "OBJECT_ID": "2016-069D",
    "CENTER_NAME": "EARTH",
    "REF_FRAME": "TEME",
    "TIME_SYSTEM": "UTC",
    "MEAN_ELEMENT_THEORY": "SGP4",
    "EPOCH": "2025-11-23T05:19:32.725920",
    "MEAN_MOTION": "1.70474665",
    "ECCENTRICITY": "0.00008880",
    "INCLINATION": "55.3688",
    "RA_OF_ASC_NODE": "106.7867",
    "ARG_OF_PERICENTER": "295.1539",
    "MEAN_ANOMALY": "64.8015",
    "EPHEMERIS_TYPE": "0",
    "CLASSIFICATION_TYPE": "U",
    "NORAD_CAT_ID": "41862",
    "ELEMENT_SET_NO": "999",
    "REV_AT_EPOCH": "5613",
    "BSTAR": "0.00000000000000",
    "MEAN_MOTION_DOT": "0.00000036",
    "MEAN_MOTION_DDOT": "0.0000000000000",
    "SEMIMAJOR_AXIS": "29600.243",
    "PERIOD": "844.700",
    "APOAPSIS": "23224.737",
    "PERIAPSIS": "23219.480",
    "OBJECT_TYPE": "PAYLOAD",
    "RCS_SIZE": "LARGE",
    "COUNTRY_CODE": "ESA",
    "LAUNCH_DATE": "2016-11-17",
    "SITE": "FRGUI",
    "DECAY_DATE": null,
    "FILE": "4895637",
    "GP_ID": "303302582",
    "TLE_LINE0": "0 GALILEO 18 (26E)",
    "TLE_LINE1": "1 41862U 16069D   25327.22190655  .00000036  00000-0  00000+0 0  9990",
    "TLE_LINE2": "2 41862  55.3688 106.7867 0000888 295.1539  64.8015  1.70474665 56130"
}